{
  "type": "FeatureCollection",
  "features": [
    {"type":"Feature","id":"mock-1","geometry":{"type":"Point","coordinates":[-118.2437,34.0522]},"properties":{"id":"mock-1","name":"Los Angeles Manufacturing","companyName":"Aerospace Corp","workforceSize":250}},
    {"type":"Feature","id":"mock-2","geometry":{"type":"Point","coordinates":[-87.6298,41.8781]},"properties":{"id":"mock-2","name":"Chicago Factory","companyName":"Industrial Co","workforceSize":180}},
    {"type":"Feature","id":"mock-3","geometry":{"type":"Point","coordinates":[-122.4194,37.7749]},"properties":{"id":"mock-3","name":"San Francisco Plant","companyName":"Tech Manufacturing","workforceSize":320}},
    {"type":"Feature","id":"mock-4","geometry":{"type":"Point","coordinates":[-95.3698,29.7604]},"properties":{"id":"mock-4","name":"Houston Facility","companyName":"Energy Systems","workforceSize":420}},
    {"type":"Feature","id":"mock-5","geometry":{"type":"Point","coordinates":[-75.1652,39.9526]},"properties":{"id":"mock-5","name":"Philadelphia Plant","companyName":"Medical Devices","workforceSize":290}},
    {"type":"Feature","id":"mock-6","geometry":{"type":"Point","coordinates":[-112.0740,33.4484]},"properties":{"id":"mock-6","name":"Phoenix Manufacturing","companyName":"Electronics Inc","workforceSize":210}},
    {"type":"Feature","id":"mock-7","geometry":{"type":"Point","coordinates":[-122.3321,47.6062]},"properties":{"id":"mock-7","name":"Seattle Factory","companyName":"Aerospace Systems","workforceSize":380}},
    {"type":"Feature","id":"mock-8","geometry":{"type":"Point","coordinates":[-104.9903,39.7392]},"properties":{"id":"mock-8","name":"Denver Plant","companyName":"Defense Contractors","workforceSize":175}},
    {"type":"Feature","id":"mock-9","geometry":{"type":"Point","coordinates":[-83.0458,42.3314]},"properties":{"id":"mock-9","name":"Detroit Assembly","companyName":"Automotive Corp","workforceSize":510}},
    {"type":"Feature","id":"mock-10","geometry":{"type":"Point","coordinates":[-71.0589,42.3601]},"properties":{"id":"mock-10","name":"Boston Manufacturing","companyName":"Biotech Inc","workforceSize":220}},
    {"type":"Feature","id":"mock-11","geometry":{"type":"Point","coordinates":[-80.1918,25.7617]},"properties":{"id":"mock-11","name":"Miami Plant","companyName":"Marine Systems","workforceSize":160}},
    {"type":"Feature","id":"mock-12","geometry":{"type":"Point","coordinates":[-84.3880,33.7490]},"properties":{"id":"mock-12","name":"Atlanta Factory","companyName":"Logistics Corp","workforceSize":340}},
    {"type":"Feature","id":"mock-13","geometry":{"type":"Point","coordinates":[-93.2650,44.9778]},"properties":{"id":"mock-13","name":"Minneapolis Plant","companyName":"Food Processing","workforceSize":280}},
    {"type":"Feature","id":"mock-14","geometry":{"type":"Point","coordinates":[-121.4944,38.5816]},"properties":{"id":"mock-14","name":"Sacramento Facility","companyName":"Agriculture Tech","workforceSize":145}},
    {"type":"Feature","id":"mock-15","geometry":{"type":"Point","coordinates":[-90.1994,38.6270]},"properties":{"id":"mock-15","name":"St. Louis Manufacturing","companyName":"Chemical Corp","workforceSize":395}},
    {"type":"Feature","id":"mock-16","geometry":{"type":"Point","coordinates":[-97.7431,30.2672]},"properties":{"id":"mock-16","name":"Austin Tech Plant","companyName":"Semiconductor Inc","workforceSize":450}},
    {"type":"Feature","id":"mock-17","geometry":{"type":"Point","coordinates":[-122.6765,45.5231]},"properties":{"id":"mock-17","name":"Portland Factory","companyName":"Green Energy","workforceSize":185}},
    {"type":"Feature","id":"mock-18","geometry":{"type":"Point","coordinates":[-86.1581,39.7684]},"properties":{"id":"mock-18","name":"Indianapolis Plant","companyName":"Pharma Manufacturing","workforceSize":310}},
    {"type":"Feature","id":"mock-19","geometry":{"type":"Point","coordinates":[-80.8431,35.2271]},"properties":{"id":"mock-19","name":"Charlotte Facility","companyName":"Banking Systems","workforceSize":125}},
    {"type":"Feature","id":"mock-20","geometry":{"type":"Point","coordinates":[-77.0369,38.9072]},"properties":{"id":"mock-20","name":"DC Manufacturing","companyName":"Defense Tech","workforceSize":265}},
    {"type":"Feature","id":"mock-21","geometry":{"type":"Point","coordinates":[-115.1398,36.1699]},"properties":{"id":"mock-21","name":"Las Vegas Plant","companyName":"Solar Systems","workforceSize":195}},
    {"type":"Feature","id":"mock-22","geometry":{"type":"Point","coordinates":[-97.3308,32.7767]},"properties":{"id":"mock-22","name":"Dallas Factory","companyName":"Telecommunications","workforceSize":425}},
    {"type":"Feature","id":"mock-23","geometry":{"type":"Point","coordinates":[-81.6557,30.3322]},"properties":{"id":"mock-23","name":"Jacksonville Facility","companyName":"Maritime Corp","workforceSize":155}},
    {"type":"Feature","id":"mock-24","geometry":{"type":"Point","coordinates":[-111.8910,40.7608]},"properties":{"id":"mock-24","name":"Salt Lake Manufacturing","companyName":"Mining Equipment","workforceSize":240}},
    {"type":"Feature","id":"mock-25","geometry":{"type":"Point","coordinates":[-82.9988,39.9612]},"properties":{"id":"mock-25","name":"Columbus Plant","companyName":"Retail Systems","workforceSize":275}},
    {"type":"Feature","id":"mock-26","geometry":{"type":"Point","coordinates":[-106.6504,35.0844]},"properties":{"id":"mock-26","name":"Albuquerque Factory","companyName":"Aerospace Defense","workforceSize":330}},
    {"type":"Feature","id":"mock-27","geometry":{"type":"Point","coordinates":[-76.6122,39.2904]},"properties":{"id":"mock-27","name":"Baltimore Manufacturing","companyName":"Biodefense","workforceSize":285}},
    {"type":"Feature","id":"mock-28","geometry":{"type":"Point","coordinates":[-96.7970,32.7763]},"properties":{"id":"mock-28","name":"Fort Worth Plant","companyName":"Aviation Systems","workforceSize":365}},
    {"type":"Feature","id":"mock-29","geometry":{"type":"Point","coordinates":[-117.1611,32.7157]},"properties":{"id":"mock-29","name":"San Diego Facility","companyName":"Naval Systems","workforceSize":405}},
    {"type":"Feature","id":"mock-30","geometry":{"type":"Point","coordinates":[-94.5786,39.0997]},"properties":{"id":"mock-30","name":"Kansas City Manufacturing","companyName":"Agriculture Equipment","workforceSize":215}}
  ]
}
